NORAD_CAT_ID,OBJECT_NAME,OBJECT_TYPE,EPOCH,MEAN_MOTION,ECCENTRICITY,INCLINATION,RA_OF_ASC_NODE,ARG_OF_PERICENTER,MEAN_ANOMALY,BSTAR,MEAN_MOTION_DOT,MEAN_MOTION_DDOT,TLE_LINE0,TLE_LINE1,TLE_LINE2,SEMIMAJOR_AXIS,PERIOD,APOGEE,PERIGEE,DECAYED
56795.0,STARLINK-6061,PAYLOAD,2024-01-09 13:29:22,14.9831849,0.0003155,70.0001,156.5024,266.1905,93.8893,0.00010333,1.14e-05,0.0,0 STARLINK-6061,1 56795U 23078AE  24009.56206225  .00001140  00000-0  10333-3 0  9994,2 56795  70.0001 156.5024 0003155 266.1905  93.8893 14.98318490 34822,6950.228,96.108,574.286,569.901,0.0
56795.0,STARLINK-6061,PAYLOAD,2024-01-09 19:53:54,14.98324328,0.0003106,70.0001,155.8292,265.3761,94.7043,0.00014064,1.585e-05,0.0,0 STARLINK-6061,1 56795U 23078AE  24009.82909895  .00001585  00000-0  14064-3 0  9994,2 56795  70.0001 155.8292 0003106 265.3761  94.7043 14.98324328 34866,6950.21,96.107,574.234,569.917,0.0
56795.0,STARLINK-6061,PAYLOAD,2024-01-10 10:19:07,14.98324929,0.0002986,70.0004,154.3144,264.5136,95.5682,7.1039e-05,7.55e-06,0.0,0 STARLINK-6061,1 56795U 23078AE  24010.42994277  .00000755  00000-0  71039-4 0  9994,2 56795  70.0004 154.3144 0002986 264.5136  95.5682 14.98324929 34956,6950.209,96.107,574.149,569.998,0.0
56795.0,STARLINK-6061,PAYLOAD,2024-01-10 19:55:55,14.98328965,0.0002946,70.0006,153.3047,264.8917,95.1906,0.0001073,1.187e-05,0.0,0 STARLINK-6061,1 56795U 23078AE  24010.83050009  .00001187  00000-0  10730-3 0  9995,2 56795  70.0006 153.3047 0002946 264.8917  95.1906 14.98328965 35270,6950.196,96.107,574.109,570.014,0.0
56795.0,STARLINK-6061,PAYLOAD,2024-01-11 13:33:23,14.98330858,0.0002852,70.0008,151.4534,262.9426,97.1409,2.0786e-05,1.55e-06,0.0,0 STARLINK-6061,1 56795U 23078AE  24011.56486079  .00000155  00000-0  20786-4 0  9993,2 56795  70.0008 151.4534 0002852 262.9426  97.1409 14.98330858 35120,6950.19,96.107,574.037,570.073,0.0
56795.0,STARLINK-6061,PAYLOAD,2024-01-11 18:21:48,14.98332068,0.0002832,70.0009,150.9485,262.9432,97.1405,3.3316e-05,3.05e-06,0.0,0 STARLINK-6061,1 56795U 23078AE  24011.76513940  .00000305  00000-0  33316-4 0  9993,2 56795  70.0009 150.9485 0002832 262.9432  97.1405 14.98332068 35159,6950.186,96.107,574.02,570.083,0.0
56795.0,STARLINK-6061,PAYLOAD,2024-01-12 10:23:09,14.98322708,0.00027,70.0012,149.2663,260.0712,100.0142,-3.2124e-05,-4.76e-06,0.0,0 STARLINK-6061,1 56795U 23078AE  24012.43274714 -.00000476  00000-0 -32124-4 0  9998,2 56795  70.0012 149.2663 0002700 260.0712 100.0142 14.98322708 35518,6950.215,96.107,573.957,570.204,0.0
56795.0,STARLINK-6061,PAYLOAD,2024-01-12 13:35:25,14.98323252,0.0002726,70.0011,148.9294,260.6124,99.4727,-6.9786e-05,-9.25e-06,0.0,0 STARLINK-6061,1 56795U 23078AE  24012.56626842 -.00000925  00000-0 -69786-4 0  9998,2 56795  70.0011 148.9294 0002726 260.6124  99.4727 14.98323252 35272,6950.214,96.107,573.973,570.184,0.0
56795.0,STARLINK-6061,PAYLOAD,2024-01-12 18:23:49,14.98323369,0.0002927,70.0004,148.4235,268.0999,91.9825,-7.6525e-05,-1.006e-05,0.0,0 STARLINK-6061,1 56795U 23078AE  24012.76654949 -.00001006  00000-0 -76525-4 0  9999,2 56795  70.0004 148.4235 0002927 268.0999  91.9825 14.98323369 35308,6950.213,96.107,574.113,570.044,0.0
56795.0,STARLINK-6061,PAYLOAD,2024-01-13 12:01:18,14.98327671,0.0002952,70.0002,146.5718,268.1934,91.8886,-4.8096e-05,-6.67e-06,0.0,0 STARLINK-6061,1 56795U 23078AE  24013.50090754 -.00000667  00000-0 -48096-4 0  9994,2 56795  70.0002 146.5718 0002952 268.1934  91.8886 14.98327671 35675,6950.2,96.107,574.117,570.013,0.0
56795.0,STARLINK-6061,PAYLOAD,2024-01-13 13:37:26,14.98327206,0.000296,70.0002,146.4035,268.1264,91.9556,-5.1886e-05,-7.12e-06,0.0,0 STARLINK-6061,1 56795U 23078AE  24013.56766807 -.00000712  00000-0 -51886-4 0  9991,2 56795  70.0002 146.4035 0002960 268.1264  91.9556 14.98327206 35423,6950.202,96.107,574.124,570.009,0.0
56795.0,STARLINK-6061,PAYLOAD,2024-01-14 12:03:18,14.98332901,0.0002975,70.0003,144.048,269.4786,90.6032,0.00014298,1.614e-05,0.0,0 STARLINK-6061,1 56795U 23078AE  24014.50229912  .00001614  00000-0  14298-3 0  9992,2 56795  70.0003 144.0480 0002975 269.4786  90.6032 14.98332901 35828,6950.184,96.107,574.117,569.981,0.0
56795.0,STARLINK-6061,PAYLOAD,2024-01-14 13:39:26,14.9833359,0.0002967,70.0003,143.8797,269.539,90.5429,0.00014861,1.681e-05,0.0,0 STARLINK-6061,1 56795U 23078AE  24014.56905843  .00001681  00000-0  14861-3 0  9992,2 56795  70.0003 143.8797 0002967 269.5390  90.5429 14.98333590 35575,6950.182,96.107,574.109,569.985,0.0
56795.0,STARLINK-6061,PAYLOAD,2024-01-14 18:27:50,14.98342252,0.0002874,70.0004,143.3743,268.8857,91.1973,0.00023749,2.743e-05,0.0,0 STARLINK-6061,1 56795U 23078AE  24014.76932934  .00002743  00000-0  23749-3 0  9990,2 56795  70.0004 143.3743 0002874 268.8857  91.1973 14.98342252 35867,6950.155,96.106,574.017,570.023,0.0
56795.0,STARLINK-6061,PAYLOAD,2024-01-15 12:05:19,14.9832973,0.0002253,70.0031,141.5268,230.9644,129.1315,3.9441e-05,3.78e-06,0.0,0 STARLINK-6061,1 56795U 23078AE  24015.50370181  .00000378  00000-0  39441-4 0  9992,2 56795  70.0031 141.5268 0002253 230.9644 129.1315 14.98329730 35974,6950.194,96.107,573.625,570.493,0.0
56795.0,STARLINK-6061,PAYLOAD,2024-01-15 13:41:27,14.98329521,0.0002384,70.0027,141.3582,239.115,120.9775,1.3885e-06,-7.6e-07,0.0,0 STARLINK-6061,1 56795U 23078AE  24015.57046283 -.00000076  00000-0  13885-5 0  9993,2 56795  70.0027 141.3582 0002384 239.1150 120.9775 14.98329521 35724,6950.194,96.107,573.716,570.402,0.0
56795.0,STARLINK-6061,PAYLOAD,2024-01-15 18:29:52,14.98325231,0.0002196,70.0023,140.8513,247.2002,112.8925,-2.6693e-05,-4.11e-06,0.0,0 STARLINK-6061,1 56795U 23078AE  24015.77074629 -.00000411  00000-0 -26693-4 0  9994,2 56795  70.0023 140.8513 0002196 247.2002 112.8925 14.98325231 35759,6950.208,96.107,573.599,570.546,0.0
56795.0,STARLINK-6061,PAYLOAD,2024-01-16 12:07:21,14.98329552,0.0002352,70.0015,138.9988,260.1188,99.9705,-0.00015567,-1.95e-05,0.0,0 STARLINK-6061,1 56795U 23078AE  24016.50510735 -.00001950  00000-0 -15567-3 0  9995,2 56795  70.0015 138.9988 0002352 260.1188  99.9705 14.98329552 36120,6950.194,96.107,573.694,570.425,0.0
56795.0,STARLINK-6061,PAYLOAD,2024-01-16 18:31:52,14.98337874,0.0002923,70.0003,138.3243,275.1059,84.9767,-7.9961e-05,-1.047e-05,0.0,0 STARLINK-6061,1 56795U 23078AE  24016.77213929 -.00001047  00000-0 -79961-4 0  9995,2 56795  70.0003 138.3243 0002923 275.1059  84.9767 14.98337874 36164,6950.169,96.106,574.065,570.002,0.0
56795.0,STARLINK-6061,PAYLOAD,2024-01-17 12:09:22,14.98325463,0.0002959,70.0001,136.4728,277.9891,82.0932,-3.1143e-05,-4.65e-06,0.0,0 STARLINK-6061,1 56795U 23078AE  24017.50650695 -.00000465  00000-0 -31143-4 0  9995,2 56795  70.0001 136.4728 0002959 277.9891  82.0932 14.98325463 36278,6950.207,96.107,574.128,570.015,0.0
56795.0,STARLINK-6061,PAYLOAD,2024-01-17 16:57:45,14.98331714,0.0002921,69.9998,135.9678,277.9584,82.1243,4.0198e-05,3.87e-06,0.0,0 STARLINK-6061,1 56795U 23078AE  24017.70678122  .00000387  00000-0  40198-4 0  9993,2 56795  69.9998 135.9678 0002921 277.9584  82.1243 14.98331714 36302,6950.188,96.107,574.083,570.022,0.0
56795.0,STARLINK-6061,PAYLOAD,2024-01-18 13:47:30,14.98328252,0.0002594,70.0012,133.7816,271.0944,88.9918,6.3545e-05,6.65e-06,0.0,0 STARLINK-6061,1 56795U 23078AE  24018.57466324  .00000665  00000-0  63545-4 0  9998,2 56795  70.0012 133.7816 0002594 271.0944  88.9918 14.98328252 36174,6950.198,96.107,573.866,570.26,0.0
56795.0,STARLINK-6061,PAYLOAD,2024-01-18 16:59:46,14.98330793,0.0002638,70.0012,133.4449,273.3272,86.7585,7.4214e-05,7.93e-06,0.0,0 STARLINK-6061,1 56795U 23078AE  24018.70818135  .00000793  00000-0  74214-4 0  9991,2 56795  70.0012 133.4449 0002638 273.3272  86.7585 14.98330793 36451,6950.19,96.107,573.889,570.222,0.0
56795.0,STARLINK-6061,PAYLOAD,2024-01-19 13:49:31,14.98331799,0.0002432,70.0018,131.258,249.319,110.7708,1.0198e-05,2.9e-07,0.0,0 STARLINK-6061,1 56795U 23078AE  24019.57606072  .00000029  00000-0  10198-4 0  9995,2 56795  70.0018 131.2580 0002432 249.3190 110.7708 14.98331799 36321,6950.187,96.107,573.743,570.362,0.0
56795.0,STARLINK-6061,PAYLOAD,2024-01-19 17:01:47,14.98333318,0.0002499,70.0011,130.9197,262.8513,97.2362,4.4475e-05,4.38e-06,0.0,0 STARLINK-6061,1 56795U 23078AE  24019.70957905  .00000438  00000-0  44475-4 0  9993,2 56795  70.0011 130.9197 0002499 262.8513  97.2362 14.98333318 36601,6950.183,96.107,573.784,570.311,0.0
56795.0,STARLINK-6061,PAYLOAD,2024-01-20 10:39:16,14.98328473,0.0002615,70.0011,129.0687,264.3261,95.76,-4.956e-05,-6.84e-06,0.0,0 STARLINK-6061,1 56795U 23078AE  24020.44394355 -.00000684  00000-0 -49560-4 0  9995,2 56795  70.0011 129.0687 0002615 264.3261  95.7600 14.98328473 36717,6950.198,96.107,573.88,570.245,0.0
56795.0,STARLINK-6061,PAYLOAD,2024-01-20 13:51:32,14.98327807,0.0002581,70.0012,128.7324,263.402,96.6845,-5.1165e-05,-7.03e-06,0.0,0 STARLINK-6061,1 56795U 23078AE  24020.57746412 -.00000703  00000-0 -51165-4 0  9990,2 56795  70.0012 128.7324 0002581 263.4020  96.6845 14.98327807 36471,6950.2,96.107,573.859,570.271,0.0
56795.0,STARLINK-6061,PAYLOAD,2024-01-20 17:03:49,14.98326363,0.0002834,70.0013,128.3963,269.8643,90.2191,-3.2472e-05,-4.8e-06,0.0,0 STARLINK-6061,1 56795U 23078AE  24020.71098483 -.00000480  00000-0 -32472-4 0  9996,2 56795  70.0013 128.3963 0002834 269.8643  90.2191 14.98326363 36491,6950.204,96.107,574.039,570.099,0.0
56795.0,STARLINK-6061,PAYLOAD,2024-01-21 10:41:17,14.98333628,0.0002777,70.0008,126.5444,267.5822,92.5019,-2.1584e-05,-3.51e-06,0.0,0 STARLINK-6061,1 56795U 23078AE  24021.44533916 -.00000351  00000-0 -21584-4 0  9991,2 56795  70.0008 126.5444 0002777 267.5822  92.5019 14.98333628 36866,6950.182,96.107,573.977,570.117,0.0
56795.0,STARLINK-6061,PAYLOAD,2024-01-21 17:05:48,14.98354035,0.0002278,70.001,125.8708,254.8819,105.2088,-0.00024641,-3.033e-05,0.0,0 STARLINK-6061,1 56795U 23078AE  24021.71237063 -.00003033  00000-0 -24641-3 0  9991,2 56795  70.0010 125.8708 0002278 254.8819 105.2088 14.98354035 36903,6950.119,96.105,573.567,570.4,0.0
